OBJECT_NAME,OBJECT_ID,EPOCH,MEAN_MOTION,ECCENTRICITY,INCLINATION,RA_OF_ASC_NODE,ARG_OF_PERICENTER,MEAN_ANOMALY,EPHEMERIS_TYPE,CLASSIFICATION_TYPE,NORAD_CAT_ID,ELEMENT_SET_NO,REV_AT_EPOCH,BSTAR,MEAN_MOTION_DOT,MEAN_MOTION_DDOT
ONEWEB-0187,2021-031M,2026-03-01T04:28:53.740704,13.14501143,.0001948,87.8991,311.2711,78.1685,281.9663,0,U,48221,999,23407,-.39767E-3,-.135E-5,0
ONEWEB-0192,2021-031N,2026-03-01T05:35:19.243968,13.14501599,.0001716,87.8991,311.2512,82.6013,277.5311,0,U,48222,999,23399,.34683E-3,.141E-5,0
ONEWEB-0219,2021-031P,2026-03-01T05:05:38.403456,13.14502015,.0001896,87.9001,311.2394,76.0549,284.0791,0,U,48223,999,23419,.66055E-3,.258E-5,0
ONEWEB-0202,2021-031Q,2026-03-01T04:38:15.046080,13.14504602,.0002139,87.9000,311.2520,97.2244,262.9129,0,U,48224,999,23417,-.13892E-3,-.39E-6,0
ONEWEB-0204,2021-031R,2026-03-01T05:27:20.202624,13.14502217,.0001696,87.9004,311.2392,69.4911,290.6401,0,U,48225,999,23407,.53003E-3,.209E-5,0
ONEWEB-0205,2021-031S,2026-03-01T04:51:56.328192,13.14502409,.0001844,87.9002,311.2362,77.2162,282.9173,0,U,48226,999,23408,.27469E-3,.115E-5,0
ONEWEB-0206,2021-031T,2026-03-01T06:02:43.721088,13.14502138,.0001461,87.9013,311.2253,84.7558,275.3738,0,U,48227,999,23404,-.35258E-3,-.118E-5,0
ONEWEB-0182,2021-031U,2026-03-01T05:55:52.144320,13.14501384,.000163,87.8998,311.2404,71.4238,288.7069,0,U,48228,999,23425,-.14304E-3,-.4E-6,0
ONEWEB-0186,2021-031V,2026-03-01T06:11:51.793440,13.14501753,.0001791,87.9008,311.2248,79.4695,280.6636,0,U,48229,999,23420,-.41196E-3,-.14E-5,0
ONEWEB-0181,2021-031W,2026-03-01T05:39:53.209728,13.14501555,.0001831,87.8991,311.2723,81.7104,278.4233,0,U,48230,999,23405,.41127E-3,.165E-5,0
ONEWEB-0188,2021-031X,2026-03-01T04:45:05.062464,13.14501382,.0001724,87.8993,311.2779,78.8270,281.3053,0,U,48231,999,23395,-.49394E-5,.11E-6,0
ONEWEB-0220,2021-031Y,2026-03-01T05:42:10.190880,13.14501422,.000186,87.9009,311.2277,77.5186,282.6151,0,U,48232,999,23422,.25466E-3,.107E-5,0
ONEWEB-0165,2021-031Z,2026-03-01T04:33:39.771360,13.14501661,.0001932,87.9001,311.2547,86.9952,273.1398,0,U,48233,999,23417,-.38554E-3,-.13E-5,0
ONEWEB-0199,2021-031AA,2026-03-01T06:00:25.938144,13.14500998,.0001538,87.9004,311.2243,79.8205,280.3098,0,U,48234,999,23408,-.20702E-3,-.64E-6,0
ONEWEB-0203,2021-031AB,2026-03-01T05:46:42.752640,13.14500170,.0001595,87.9006,311.2253,84.9668,275.1644,0,U,48235,999,23409,-.55622E-3,-.193E-5,0
ONEWEB-0197,2021-031AC,2026-03-01T05:10:00.527232,13.14501769,.0001632,87.9000,311.2302,68.4051,291.7252,0,U,48236,999,23400,.58687E-3,.23E-5,0
ONEWEB-0194,2021-031AD,2026-03-01T04:40:31.196064,13.14501944,.0001461,87.9002,311.2514,84.6740,275.4556,0,U,48237,999,23417,-.5036E-4,-.6E-7,0
ONEWEB-0193,2021-031AE,2026-03-01T05:03:21.309984,13.14502121,.0001287,87.8999,311.2404,89.1830,270.9447,0,U,48238,999,23412,.63591E-3,.249E-5,0
ONEWEB-0191,2021-031AF,2026-03-01T05:19:20.343072,13.14501588,.0001601,87.9003,311.2336,78.1491,281.9818,0,U,48239,999,23398,.75058E-3,.291E-5,0
ONEWEB-0195,2021-031AG,2026-03-01T04:46:13.732320,13.14502372,.0002011,87.8999,311.2350,85.8310,274.3050,0,U,48240,999,23396,.47293E-4,.3E-6,0
ONEWEB-0201,2021-031AH,2026-03-01T04:29:18.146976,13.14501798,.0001919,87.8993,311.2666,73.6560,286.4781,0,U,48241,999,23419,-.38636E-3,-.13E-5,0
ONEWEB-0207,2021-031AJ,2026-03-01T05:50:11.268672,13.14503259,.0001808,87.9005,311.2264,71.1895,288.9431,0,U,48242,999,23411,-.27761E-4,.2E-7,0
ONEWEB-0208,2021-031AK,2026-03-01T05:23:54.333024,13.14501634,.0001912,87.9000,311.2429,85.2745,274.8603,0,U,48243,999,23412,.64854E-3,.253E-5,0
ONEWEB-0200,2021-031AL,2026-03-01T04:31:22.831680,13.14501297,.000182,87.9002,311.2387,80.1214,280.0121,0,U,48244,999,23404,-.47986E-3,-.165E-5,0
ONEWEB-0217,2021-031AM,2026-03-01T04:54:13.463136,13.14502261,.0001979,87.9003,311.2352,85.4822,274.6533,0,U,48245,999,23399,.30459E-3,.126E-5,0
ONEWEB-0211,2021-045A,2026-03-01T09:27:10.158912,13.16142999,.0001931,87.8954,280.6284,98.7747,261.3603,0,U,48767,999,23026,-.18257E-3,-.56E-6,0
ONEWEB-0223,2021-045B,2026-03-01T02:46:44.911776,13.15547135,.00017186,87.8959,280.7636,102.8428,257.2894,0,U,48768,999,23019,.12824247E-3,.61E-6,0
ONEWEB-0230,2021-045C,2026-03-01T11:13:17.524416,13.15546895,.0001485,87.8946,280.7169,83.8090,276.3209,0,U,48769,999,23050,-.94135E-5,.9E-7,0
ONEWEB-0237,2021-045D,2026-03-01T03:39:13.333824,13.15547050,.00014903,87.8946,280.7818,97.3984,262.7315,0,U,48770,999,23018,.42782884E-3,.174E-5,0
ONEWEB-0235,2021-045E,2026-03-01T12:10:19.969248,13.15546542,.0001632,87.8955,280.6863,104.4238,255.7074,0,U,48771,999,23022,.31065E-3,.13E-5,0
ONEWEB-0242,2021-045F,2026-03-01T10:11:40.795872,13.15546781,.0001445,87.8955,280.6981,92.6006,267.5290,0,U,48772,999,23025,.25912E-3,.11E-5,0
