ONEWEB-0187             
1 48221U 21031M   26060.18673311 -.00000135  00000+0 -39767-3 0  9993
2 48221  87.8991 311.2711 0001948  78.1685 281.9663 13.14501143234078
ONEWEB-0192             
1 48222U 21031N   26060.23286162  .00000141  00000+0  34683-3 0  9991
2 48222  87.8991 311.2512 0001716  82.6013 277.5311 13.14501599233992
ONEWEB-0219             
1 48223U 21031P   26060.21225004  .00000258  00000+0  66055-3 0  9995
2 48223  87.9001 311.2394 0001896  76.0549 284.0791 13.14502015234196
ONEWEB-0202             
1 48224U 21031Q   26060.19322970 -.00000039  00000+0 -13892-3 0  9993
2 48224  87.9000 311.2520 0002139  97.2244 262.9129 13.14504602234177
ONEWEB-0204             
1 48225U 21031R   26060.22731716  .00000209  00000+0  53003-3 0  9995
2 48225  87.9004 311.2392 0001696  69.4911 290.6401 13.14502217234078
ONEWEB-0205             
1 48226U 21031S   26060.20273528  .00000115  00000+0  27469-3 0  9999
2 48226  87.9002 311.2362 0001844  77.2162 282.9173 13.14502409234088
ONEWEB-0206             
1 48227U 21031T   26060.25189492 -.00000118  00000+0 -35258-3 0  9991
2 48227  87.9013 311.2253 0001461  84.7558 275.3738 13.14502138234045
ONEWEB-0182             
1 48228U 21031U   26060.24713130 -.00000040  00000+0 -14304-3 0  9996
2 48228  87.8998 311.2404 0001630  71.4238 288.7069 13.14501384234251
ONEWEB-0186             
1 48229U 21031V   26060.25823835 -.00000140  00000+0 -41196-3 0  9992
2 48229  87.9008 311.2248 0001791  79.4695 280.6636 13.14501753234200
ONEWEB-0181             
1 48230U 21031W   26060.23603252  .00000165  00000+0  41127-3 0  9990
2 48230  87.8991 311.2723 0001831  81.7104 278.4233 13.14501555234057
ONEWEB-0188             
1 48231U 21031X   26060.19797526  .00000011  00000+0 -49394-5 0  9991
2 48231  87.8993 311.2779 0001724  78.8270 281.3053 13.14501382233952
ONEWEB-0220             
1 48232U 21031Y   26060.23761795  .00000107  00000+0  25466-3 0  9993
2 48232  87.9009 311.2277 0001860  77.5186 282.6151 13.14501422234227
ONEWEB-0165             
1 48233U 21031Z   26060.19004365 -.00000130  00000+0 -38554-3 0  9992
2 48233  87.9001 311.2547 0001932  86.9952 273.1398 13.14501661234172
ONEWEB-0199             
1 48234U 21031AA  26060.25030021 -.00000064  00000+0 -20702-3 0  9990
2 48234  87.9004 311.2243 0001538  79.8205 280.3098 13.14500998234082
ONEWEB-0203             
1 48235U 21031AB  26060.24077260 -.00000193  00000+0 -55622-3 0  9998
2 48235  87.9006 311.2253 0001595  84.9668 275.1644 13.14500170234091
ONEWEB-0197             
1 48236U 21031AC  26060.21528388  .00000230  00000+0  58687-3 0  9992
2 48236  87.9000 311.2302 0001632  68.4051 291.7252 13.14501769234001
ONEWEB-0194             
1 48237U 21031AD  26060.19480551 -.00000006  00000+0 -50360-4 0  9993
2 48237  87.9002 311.2514 0001461  84.6740 275.4556 13.14501944234173
ONEWEB-0193             
1 48238U 21031AE  26060.21066331  .00000249  00000+0  63591-3 0  9999
2 48238  87.8999 311.2404 0001287  89.1830 270.9447 13.14502121234124
ONEWEB-0191             
1 48239U 21031AF  26060.22176323  .00000291  00000+0  75058-3 0  9992
2 48239  87.9003 311.2336 0001601  78.1491 281.9818 13.14501588233980
ONEWEB-0195             
1 48240U 21031AG  26060.19877005  .00000030  00000+0  47293-4 0  9997
2 48240  87.8999 311.2350 0002011  85.8310 274.3050 13.14502372233966
ONEWEB-0201             
1 48241U 21031AH  26060.18701559 -.00000130  00000+0 -38636-3 0  9990
2 48241  87.8993 311.2666 0001919  73.6560 286.4781 13.14501798234191
ONEWEB-0207             
1 48242U 21031AJ  26060.24318598  .00000002  00000+0 -27761-4 0  9990
2 48242  87.9005 311.2264 0001808  71.1895 288.9431 13.14503259234117
ONEWEB-0208             
1 48243U 21031AK  26060.22493441  .00000253  00000+0  64854-3 0  9990
2 48243  87.9000 311.2429 0001912  85.2745 274.8603 13.14501634234123
ONEWEB-0200             
1 48244U 21031AL  26060.18845870 -.00000165  00000+0 -47986-3 0  9994
2 48244  87.9002 311.2387 0001820  80.1214 280.0121 13.14501297234042
ONEWEB-0217             
1 48245U 21031AM  26060.20432249  .00000126  00000+0  30459-3 0  9992
2 48245  87.9003 311.2352 0001979  85.4822 274.6533 13.14502261233995
ONEWEB-0211             
1 48767U 21045A   26060.39386758 -.00000056  00000+0 -18257-3 0  9995
2 48767  87.8954 280.6284 0001931  98.7747 261.3603 13.16142999230260
ONEWEB-0223             
1 48768U 21045B   26060.11579759  .00000061  00000+0  12824-3 0  9999
2 48768  87.8959 280.7636 0001718 102.8428 257.2894 13.15547135230192
ONEWEB-0230             
1 48769U 21045C   26060.46756394  .00000009  00000+0 -94135-5 0  9990
2 48769  87.8946 280.7169 0001485  83.8090 276.3209 13.15546895230503
ONEWEB-0237             
1 48770U 21045D   26060.15223766  .00000174  00000+0  42783-3 0  9992
2 48770  87.8946 280.7818 0001490  97.3984 262.7315 13.15547050230189
ONEWEB-0235             
1 48771U 21045E   26060.50717557  .00000130  00000+0  31065-3 0  9991
2 48771  87.8955 280.6863 0001632 104.4238 255.7074 13.15546542230223
ONEWEB-0242             
1 48772U 21045F   26060.42477773  .00000110  00000+0  25912-3 0  9998
2 48772  87.8955 280.6981 0001445  92.6006 267.5290 13.15546781230257
